{"type": "FeatureCollection", "features": [ {"type": "Feature", "properties": {"norad_id": 66998, "name": "2025-292F", "group": "last-30-days", "lat": -22.761880557192747, "lon": 69.18203951490855, "alt_km": 556.2912160761998, "timestamp": "2025-12-19T10:49:59.925254+00:00", "meta": {"OBJECT_NAME": "2025-292F", "OBJECT_ID": "2025-292F", "EPOCH": "2025-12-18T22:10:07.730112", "MEAN_MOTION": 15.04888231, "ECCENTRICITY": 0.00145808, "INCLINATION": 97.6564, "RA_OF_ASC_NODE": 65.4233, "ARG_OF_PERICENTER": 254.6764, "MEAN_ANOMALY": 105.2851, "EPHEMERIS_TYPE": 0, "CLASSIFICATION_TYPE": "U", "NORAD_CAT_ID": 66998, "ELEMENT_SET_NO": 999, "REV_AT_EPOCH": 132, "BSTAR": 0.00029795477, "MEAN_MOTION_DOT": 4.162e-05, "MEAN_MOTION_DDOT": 0}, "tle": {"line1": "1 66998U 25292F   25352.92370058  .00004162  00000+0  29795-3 0  9996", "line2": "2 66998  97.6564  65.4233 0014580 254.6764 105.2851 15.04888231  1320"}}, "geometry": {"type": "Point", "coordinates": [69.18203951490855, -22.761880557192747]}}, {"type": "Feature", "properties": {"norad_id": 66999, "name": "2025-292G", "group": "last-30-days", "lat": -20.67641124754414, "lon": 68.8585837304154, "alt_km": 555.9511641098579, "timestamp": "2025-12-19T10:49:59.925265+00:00", "meta": {"OBJECT_NAME": "2025-292G", "OBJECT_ID": "2025-292G", "EPOCH": "2025-12-18T22:09:35.990208", "MEAN_MOTION": 15.04952095, "ECCENTRICITY": 0.0014097, "INCLINATION": 97.6573, "RA_OF_ASC_NODE": 65.4246, "ARG_OF_PERICENTER": 256.814, "MEAN_ANOMALY": 103.1513, "EPHEMERIS_TYPE": 0, "CLASSIFICATION_TYPE": "U", "NORAD_CAT_ID": 66999, "ELEMENT_SET_NO": 999, "REV_AT_EPOCH": 132, "BSTAR": 0.00030151003, "MEAN_MOTION_DOT": 4.219e-05, "MEAN_MOTION_DDOT": 0}, "tle": {"line1": "1 66999U 25292G   25352.92333322  .00004219  00000+0  30151-3 0  9991", "line2": "2 66999  97.6573  65.4246 0014097 256.8140 103.1513 15.04952095  1322"}}, "geometry": {"type": "Point", "coordinates": [68.8585837304154, -20.67641124754414]}}, {"type": "Feature", "properties": {"norad_id": 67000, "name": "2025-292H", "group": "last-30-days", "lat": -20.671828637711098, "lon": 68.85823534924141, "alt_km": 555.8736121147313, "timestamp": "2025-12-19T10:49:59.925275+00:00", "meta": {"OBJECT_NAME": "2025-292H", "OBJECT_ID": "2025-292H", "EPOCH": "2025-12-17T15:50:27.314304", "MEAN_MOTION": 15.04941506, "ECCENTRICITY": 0.00140318, "INCLINATION": 97.6577, "RA_OF_ASC_NODE": 64.1722, "ARG_OF_PERICENTER": 261.5567, "MEAN_ANOMALY": 98.4069, "EPHEMERIS_TYPE": 0, "CLASSIFICATION_TYPE": "U", "NORAD_CAT_ID": 67000, "ELEMENT_SET_NO": 999, "REV_AT_EPOCH": 100, "BSTAR": 0.00033244641, "MEAN_MOTION_DOT": 4.658e-05, "MEAN_MOTION_DDOT": 0}, "tle": {"line1": "1 67000U 25292H   25351.66003836  .00004658  00000+0  33245-3 0  9993", "line2": "2 67000  97.6577  64.1722 0014031 261.5567  98.4069 15.04941506  1001"}}, "geometry": {"type": "Point", "coordinates": [68.85823534924141, -20.671828637711098]}}, {"type": "Feature", "properties": {"norad_id": 67001, "name": "2025-292J", "group": "last-30-days", "lat": -39.93006321304072, "lon": 72.40417956767965, "alt_km": 557.5948948236664, "timestamp": "2025-12-19T10:49:59.925285+00:00", "meta": {"OBJECT_NAME": "2025-292J", "OBJECT_ID": "2025-292J", "EPOCH": "2025-12-18T22:14:29.844384", "MEAN_MOTION": 15.04367356, "ECCENTRICITY": 0.00142916, "INCLINATION": 97.6565, "RA_OF_ASC_NODE": 65.4193, "ARG_OF_PERICENTER": 245.44, "MEAN_ANOMALY": 114.5337, "EPHEMERIS_TYPE": 0, "CLASSIFICATION_TYPE": "U", "NORAD_CAT_ID": 67001, "ELEMENT_SET_NO": 999, "REV_AT_EPOCH": 132, "BSTAR": 0.00031517378, "MEAN_MOTION_DOT": 4.345e-05, "MEAN_MOTION_DDOT": 0}, "tle": {"line1": "1 67001U 25292J   25352.92673431  .00004345  00000+0  31517-3 0  9991", "line2": "2 67001  97.6565  65.4193 0014291 245.4400 114.5337 15.04367356  1328"}}, "geometry": {"type": "Point", "coordinates": [72.40417956767965, -39.93006321304072]}}, {"type": "Feature", "properties": {"norad_id": 67002, "name": "ZK-1A R/B", "group": "last-30-days", "lat": -32.22154715627658, "lon": -118.12976758543664, "alt_km": 491.74991754254916, "timestamp": "2025-12-19T10:49:59.925298+00:00", "meta": {"OBJECT_NAME": "ZK-1A R/B", "OBJECT_ID": "2025-292K", "EPOCH": "2025-12-18T18:29:03.183072", "MEAN_MOTION": 15.5652268, "ECCENTRICITY": 0.02131464, "INCLINATION": 97.7231, "RA_OF_ASC_NODE": 66.0394, "ARG_OF_PERICENTER": 343.7647, "MEAN_ANOMALY": 15.6846, "EPHEMERIS_TYPE": 0, "CLASSIFICATION_TYPE": "U", "NORAD_CAT_ID": 67002, "ELEMENT_SET_NO": 999, "REV_AT_EPOCH": 133, "BSTAR": 0.0007097127, "MEAN_MOTION_DOT": 0.00147822, "MEAN_MOTION_DDOT": 7.93125e-06}, "tle": {"line1": "1 67002U 25292K   25352.77017573  .00147822  79312-5  70971-3 0  9997", "line2": "2 67002  97.7231  66.0394 0213146 343.7647  15.6846 15.56522680  1332"}}, "geometry": {"type": "Point", "coordinates": [-118.12976758543664, -32.22154715627658]}}, {"type": "Feature", "properties": {"norad_id": 67003, "name": "STARLINK-35660", "group": "last-30-days", "lat": -48.95057574865322, "lon": -80.4184394511005, "alt_km": 296.4607404986, "timestamp": "2025-12-19T10:49:59.925330+00:00", "meta": {"OBJECT_NAME": "STARLINK-35660", "OBJECT_ID": "2025-293A", "EPOCH": "2025-12-18T22:00:00.999936", "MEAN_MOTION": 15.94831556, "ECCENTRICITY": 0.0003912, "INCLINATION": 69.9949, "RA_OF_ASC_NODE": 305.8727, "ARG_OF_PERICENTER": 266.8392, "MEAN_ANOMALY": 211.9295, "EPHEMERIS_TYPE": 0, "CLASSIFICATION_TYPE": "U", "NORAD_CAT_ID": 67003, "ELEMENT_SET_NO": 999, "REV_AT_EPOCH": 130, "BSTAR": -0.0029098496, "MEAN_MOTION_DOT": -0.01119533, "MEAN_MOTION_DDOT": 0.00038317166}, "tle": {"line1": "1 67003U 25293A   25352.91667824 -.01119533  38317-3 -29098-2 0  9997", "line2": "2 67003  69.9949 305.8727 0003912 266.8392 211.9295 15.94831556  1307"}}, "geometry": {"type": "Point", "coordinates": [-80.4184394511005, -48.95057574865322]}}, {"type": "Feature", "properties": {"norad_id": 67004, "name": "STARLINK-35913", "group": "last-30-days", "lat": -47.29070552312425, "lon": -78.93457970080438, "alt_km": 296.3846561105065, "timestamp": "2025-12-19T10:49:59.925342+00:00", "meta": {"OBJECT_NAME": "STARLINK-35913", "OBJECT_ID": "2025-293B", "EPOCH": "2025-12-18T22:00:00.999936", "MEAN_MOTION": 15.94888754, "ECCENTRICITY": 0.00038627, "INCLINATION": 69.9951, "RA_OF_ASC_NODE": 305.8705, "ARG_OF_PERICENTER": 265.7035, "MEAN_ANOMALY": 214.896, "EPHEMERIS_TYPE": 0, "CLASSIFICATION_TYPE": "U", "NORAD_CAT_ID": 67004, "ELEMENT_SET_NO": 999, "REV_AT_EPOCH": 130, "BSTAR": -0.002914419, "MEAN_MOTION_DOT": -0.01124648, "MEAN_MOTION_DDOT": 0.00038663684}, "tle": {"line1": "1 67004U 25293B   25352.91667824 -.01124648  38664-3 -29144-2 0  9998", "line2": "2 67004  69.9951 305.8705 0003862 265.7035 214.8960 15.94888754  1306"}}, "geometry": {"type": "Point", "coordinates": [-78.93457970080438, -47.29070552312425]}}, {"type": "Feature", "properties": {"norad_id": 67005, "name": "STARLINK-36148", "group": "last-30-days", "lat": -45.50830548253833, "lon": -77.45666130282379, "alt_km": 296.12037942837196, "timestamp": "2025-12-19T10:49:59.925353+00:00", "meta": {"OBJECT_NAME": "STARLINK-36148", "OBJECT_ID": "2025-293C", "EPOCH": "2025-12-18T22:00:00.999936", "MEAN_MOTION": 15.94946407, "ECCENTRICITY": 0.00039459, "INCLINATION": 69.9952, "RA_OF_ASC_NODE": 305.8698, "ARG_OF_PERICENTER": 268.0466, "MEAN_ANOMALY": 214.5022, "EPHEMERIS_TYPE": 0, "CLASSIFICATION_TYPE": "U", "NORAD_CAT_ID": 67005, "ELEMENT_SET_NO": 999, "REV_AT_EPOCH": 130, "BSTAR": -0.0029152411, "MEAN_MOTION_DOT": -0.01128434, "MEAN_MOTION_DDOT": 0.00038927385}, "tle": {"line1": "1 67005U 25293C   25352.91667824 -.01128434  38927-3 -29152-2 0  9997", "line2": "2 67005  69.9952 305.8698 0003945 268.0466 214.5022 15.94946407  1301"}}, "geometry": {"type": "Point", "coordinates": [-77.45666130282379, -45.50830548253833]}}, {"type": "Feature", "properties": {"norad_id": 67006, "name": "STARLINK-36156", "group": "last-30-days", "lat": -41.20192984668994, "lon": -74.29587897078886, "alt_km": 295.8063200826091, "timestamp": "2025-12-19T10:49:59.925362+00:00", "meta": {"OBJECT_NAME": "STARLINK-36156", "OBJECT_ID": "2025-293D", "EPOCH": "2025-12-18T22:00:00.999936", "MEAN_MOTION": 15.95083363, "ECCENTRICITY": 0.00039508, "INCLINATION": 69.9951, "RA_OF_ASC_NODE": 305.8633, "ARG_OF_PERICENTER": 266.5243, "MEAN_ANOMALY": 220.6554, "EPHEMERIS_TYPE": 0, "CLASSIFICATION_TYPE": "U", "NORAD_CAT_ID": 67006, "ELEMENT_SET_NO": 999, "REV_AT_EPOCH": 130, "BSTAR": -0.0029135626, "MEAN_MOTION_DOT": -0.01135999, "MEAN_MOTION_DDOT": 0.00039466211}, "tle": {"line1": "1 67006U 25293D   25352.91667824 -.01135999  39466-3 -29136-2 0  9993", "line2": "2 67006  69.9951 305.8633 0003950 266.5243 220.6554 15.95083363  1304"}}, "geometry": {"type": "Point", "coordinates": [-74.29587897078886, -41.20192984668994]}}, {"type": "Feature", "properties": {"norad_id": 67007, "name": "STARLINK-36123", "group": "last-30-days", "lat": -43.156345802541594, "lon": -75.66811032770393, "alt_km": 295.99722290187765, "timestamp": "2025-12-19T10:49:59.925373+00:00", "meta": {"OBJECT_NAME": "STARLINK-36123", "OBJECT_ID": "2025-293E", "EPOCH": "2025-12-18T22:00:00.999936", "MEAN_MOTION": 15.95019728, "ECCENTRICITY": 0.00039151, "INCLINATION": 69.9946, "RA_OF_ASC_NODE": 305.8658, "ARG_OF_PERICENTER": 266.2589, "MEAN_ANOMALY": 218.8316, "EPHEMERIS_TYPE": 0, "CLASSIFICATION_TYPE": "U", "NORAD_CAT_ID": 67007, "ELEMENT_SET_NO": 999, "REV_AT_EPOCH": 130, "BSTAR": -0.0029091517, "MEAN_MOTION_DOT": -0.01130463, "MEAN_MOTION_DDOT": 0.00039086324}, "tle": {"line1": "1 67007U 25293E   25352.91667824 -.01130463  39086-3 -29092-2 0  9994", "line2": "2 67007  69.9946 305.8658 0003915 266.2589 218.8316 15.95019728  1306"}}, "geometry": {"type": "Point", "coordinates": [-75.66811032770393, -43.156345802541594]}}]}